[
  {
    "name": "PLEIADES NEO 3",
    "line1": "1 48268U 21034A   25353.27912429  .00000610  00000+0  84114-4 0  9990",
    "line2": "2 48268  97.8951  65.6266 0001318  90.0597 270.0767 14.81671723251011",
    "catNr": 48268
  },
  {
    "name": "PLEIADES NEO 4",
    "line1": "1 49070U 21073E   25353.24534509  .00000559  00000+0  77654-4 0  9994",
    "line2": "2 49070  97.8952  65.5893 0001320  92.9573 267.1791 14.81674999234728",
    "catNr": 49070
  }
]